source,longitude,latitude,title,propertytype,provider,description,address,totalunits,url,hidden
https://www.chf.bc.ca/find-co-op/,-122.90187,49.24809,115 Place Co-operative Housing Association,Non-Profit,Co-operative Housing Federation of BC (CHF BC) Member,,,234,https://www.chf.bc.ca/co-op/?id=0011500001L5jtdAAB,
,-123.33445,48.42788,1678 Fort Street Housing Co-operative,Non-Profit,Co-operative Housing Federation of BC (CHF BC) Member,,,,https://www.chf.bc.ca/co-op/?id=0011500001L5jteAAB,
,-123.928121,48.381626,A Common Way Home Co-op Housing Association,Non-Profit,Co-operative Housing Federation of BC (CHF BC) Member,,,,https://www.chf.bc.ca/co-op/?id=0011C00002GGBtVQAX,
,-123.102788329,49.270373787,Aaron Webster Housing Co-operative,Non-Profit,Co-operative Housing Federation of BC (CHF BC) Member,,,,https://www.chf.bc.ca/co-op/?id=0011500001L5jt9AAB,
,-122.31495,49.03815,Abbotsford Co-operative Housing,Non-Profit,Co-operative Housing Federation of BC (CHF BC) Member,,,,https://www.chf.bc.ca/co-op/?id=0011500001L5jt3AAB,
,-123.04557776,49.26540171,Access Housing Co-operative,Non-Profit,Co-operative Housing Federation of BC (CHF BC) Member,,,,https://www.chf.bc.ca/co-op/?id=0011500001L5jtkAAB,
,-123.02811463,49.2763955,Adanac Village Housing Co-operative Society,Non-Profit,Co-operative Housing Federation of BC (CHF BC) Member,,,,https://www.chf.bc.ca/co-op/?id=0011500001L5jvUAAR,
,-123.04097739,49.2365991,Alberni Family Housing Co-operative,Non-Profit,Co-operative Housing Federation of BC (CHF BC) Member,,,,https://www.chf.bc.ca/co-op/?id=0011500001L5juVAAR,
,-123.1340075,49.26771357,Alder Bay Housing Co-operative,Non-Profit,Co-operative Housing Federation of BC (CHF BC) Member,,,,https://www.chf.bc.ca/co-op/?id=0011500001L5jvGAAR,
,-123.02555612,49.20868184,Alexander Laidlaw Housing Co-operative,Non-Profit,Co-operative Housing Federation of BC (CHF BC) Member,,,,https://www.chf.bc.ca/co-op/?id=0011500001L5jsuAAB,
,-123.09046001,49.28366031,Alexander Street Co-operative,Non-Profit,Co-operative Housing Federation of BC (CHF BC) Member,,,,https://www.chf.bc.ca/co-op/?id=0011500001L5ju2AAB,
,-123.34771,48.44016,Alf Toone Housing Cooperative,Non-Profit,Co-operative Housing Federation of BC (CHF BC) Member,,,,https://www.chf.bc.ca/co-op/?id=0011500001L5ju6AAB,
,-123.15411,49.330045,Ambleview Place Housing Co-operative,Equity,Co-operative Housing Federation of BC (CHF BC) Member,,,,https://www.chf.bc.ca/co-op/?id=0011500001L5jtfAAB,
,-123.12576234,49.28281842,Amicae Housing Cooperative,Non-Profit,Co-operative Housing Federation of BC (CHF BC) Member,,,,https://www.chf.bc.ca/co-op/?id=0011500001L5jv0AAB,
,-123.00989,49.22559,Andras Place Housing Co-operative,Non-Profit,Co-operative Housing Federation of BC (CHF BC) Member,,,,https://www.chf.bc.ca/co-op/?id=0011500001L5jvOAAR,
,-123.02403574,49.23928138,Anita Lewis Housing Co-operative,Non-Profit,Co-operative Housing Federation of BC (CHF BC) Member,,,,https://www.chf.bc.ca/co-op/?id=0011500001L5jslAAB,
,-122.88165,49.26822,Anskar Court Housing Co-operative,Non-Profit,Co-operative Housing Federation of BC (CHF BC) Member,,,,https://www.chf.bc.ca/co-op/?id=0011500001L5jwcAAB,
,-122.98588,49.21485,Antrim Place Housing Co-operative,Non-Profit,Co-operative Housing Federation of BC (CHF BC) Member,,,,https://www.chf.bc.ca/co-op/?id=0011500001L5jt2AAB,
,-122.79533,49.19334,Arboretum Housing Co-operative,Non-Profit,Co-operative Housing Federation of BC (CHF BC) Member,,,,https://www.chf.bc.ca/co-op/?id=0011500001L5jw3AAB,
,-123.15668311,49.26266151,Arbutus Housing Cooperative,Non-Profit,Co-operative Housing Federation of BC (CHF BC) Member,,,,https://www.chf.bc.ca/co-op/?id=0011500001L5jwpAAB,
,-122.89354,49.1495,Arland Mews Housing Co-operative,Non-Profit,Co-operative Housing Federation of BC (CHF BC) Member,,,,https://www.chf.bc.ca/co-op/?id=0011500001L5juyAAB,
,-123.0314457,49.21961153,Arlington Grove Housing Co-operative,Non-Profit,Co-operative Housing Federation of BC (CHF BC) Member,,,,https://www.chf.bc.ca/co-op/?id=0011500001L5jv3AAB,
,-123.11773843,49.20854521,Ashley Mar Housing Co-operative,Non-Profit,Co-operative Housing Federation of BC (CHF BC) Member,,,,https://www.chf.bc.ca/co-op/?id=0011500001L5jtHAAR,
,-122.92004,49.23373,Avalon Housing Co-operative,Non-Profit,Co-operative Housing Federation of BC (CHF BC) Member,,,,https://www.chf.bc.ca/co-op/?id=0011500001L5jt6AAB,
,-122.840271,49.137227,Avondale Housing Co-operative,Non-Profit,Co-operative Housing Federation of BC (CHF BC) Member,,,,https://www.chf.bc.ca/co-op/?id=0011500001LxSAfAAN,
,-122.29714,49.04556,Bakerview Housing Co-operative,Non-Profit,Co-operative Housing Federation of BC (CHF BC) Member,,,,https://www.chf.bc.ca/co-op/?id=0011500001L5jvMAAR,
,-123.38278,48.41956,Beckley Farm Housing Co-operative,Non-Profit,Co-operative Housing Federation of BC (CHF BC) Member,,,,https://www.chf.bc.ca/co-op/?id=0011500001L5jv9AAB,
,-123.12761,49.16088,Benryk Mews Housing Co-operative,Non-Profit,Co-operative Housing Federation of BC (CHF BC) Member,,,,https://www.chf.bc.ca/co-op/?id=0011500001L5jvsAAB,
,-122.83853,49.13136,Birch Housing Co-operative,Non-Profit,Co-operative Housing Federation of BC (CHF BC) Member,,,,https://www.chf.bc.ca/co-op/?id=0011500001L5jtPAAR,
,-119.29948,50.26286,Blue Skies Housing Co-operative,Non-Profit,Co-operative Housing Federation of BC (CHF BC) Member,,,,https://www.chf.bc.ca/co-op/?id=0011500001L5jurAAB,
,-123.12777,49.16085,Blueberry Vale Housing Co-operative,Non-Profit,Co-operative Housing Federation of BC (CHF BC) Member,,,,https://www.chf.bc.ca/co-op/?id=0011500001L5jvuAAB,
,-122.96029,49.20892,Bounty Housing Co-operative,Non-Profit,Co-operative Housing Federation of BC (CHF BC) Member,,,,https://www.chf.bc.ca/co-op/?id=0011500001L5jwSAAR,
,-123.33968,49.38286,Bowen Island Seniors Housing Co-operative,Non-Profit,Co-operative Housing Federation of BC (CHF BC) Member,,,,https://www.chf.bc.ca/co-op/?id=0011500001L5jtmAAB,
,-123.14388,49.76689,Bracken Heights Housing Co-operative,Non-Profit,Co-operative Housing Federation of BC (CHF BC) Member,,,,https://www.chf.bc.ca/co-op/?id=0011500001L5jvCAAR,
,-123.3814,48.49659,Broadoaks Housing Cooperative,Non-Profit,Co-operative Housing Federation of BC (CHF BC) Member,,,,https://www.chf.bc.ca/co-op/?id=0011500001L5jwBAAR,
,-123.18021442,49.2640035,Broadview Housing Co-operative,Non-Profit,Co-operative Housing Federation of BC (CHF BC) Member,,,,https://www.chf.bc.ca/co-op/?id=0011500001L5juYAAR,
,-122.32697,49.05986,Brooksford Place Housing Co-operative,Non-Profit,Co-operative Housing Federation of BC (CHF BC) Member,,,,https://www.chf.bc.ca/co-op/?id=0011500001L5jwEAAR,
,-122.92114,49.20507,Brow of the Hill Housing Co-operative,Non-Profit,Co-operative Housing Federation of BC (CHF BC) Member,,,,https://www.chf.bc.ca/co-op/?id=0011500001KkeDIAAZ,
,-123.06687208,49.26161645,Burlington Heights Housing Co-operative,Non-Profit,Co-operative Housing Federation of BC (CHF BC) Member,,,,https://www.chf.bc.ca/co-op/?id=0011500001L5jsmAAB,
,-122.88949,49.26029,Burquitlam Co-operative Housing Association,Non-Profit,Co-operative Housing Federation of BC (CHF BC) Member,,,,https://www.chf.bc.ca/co-op/?id=0011500001L5jtIAAR,
,-122.9536,49.32014,Burrardview Housing Co-operative Society,Non-Profit,Co-operative Housing Federation of BC (CHF BC) Member,,,,https://www.chf.bc.ca/co-op/?id=0011500001L5juHAAR,
,-122.95676,49.21253,Byrne Creek Housing Co-operative,Non-Profit,Co-operative Housing Federation of BC (CHF BC) Member,,,,https://www.chf.bc.ca/co-op/?id=0011500001L5jukAAB,
,-123.42894,48.45092,Cameo Co-operative Housing Association,Non-Profit,Co-operative Housing Federation of BC (CHF BC) Member,,,,https://www.chf.bc.ca/co-op/?id=0011500001L5jt8AAB,
,-122.91372,49.2066,Campus Residence Co-operative Association,Non-Profit,Co-operative Housing Federation of BC (CHF BC) Member,,,,https://www.chf.bc.ca/co-op/?id=0011500001L5jw5AAB,
,-123.097065,49.324598,Capilano Housing Co-operative,Non-Profit,Co-operative Housing Federation of BC (CHF BC) Member,,,,https://www.chf.bc.ca/co-op/?id=0011500001L5jwaAAB,
,-122.90969,49.24248,Cariboo Heights Housing Co-operative,Non-Profit,Co-operative Housing Federation of BC (CHF BC) Member,,,,https://www.chf.bc.ca/co-op/?id=0011500001Kkdu2AAB,
,-123.03115912,49.21293165,Cedar Mill Housing Co-operative,Non-Profit,Co-operative Housing Federation of BC (CHF BC) Member,,,,https://www.chf.bc.ca/co-op/?id=0011500001L5jvYAAR,
,-123.01337,49.23548,Centennial Park Housing Co-operative,Non-Profit,Co-operative Housing Federation of BC (CHF BC) Member,,,,https://www.chf.bc.ca/co-op/?id=0011500001L5jwKAAR,
,-119.62667,49.82783,Central Okanagan Co-operative Association,Non-Profit,Co-operative Housing Federation of BC (CHF BC) Member,,,,https://www.chf.bc.ca/co-op/?id=0011500001L5jwmAAB,
,-122.95245,49.2163,Chances Housing Co-operative,Non-Profit,Co-operative Housing Federation of BC (CHF BC) Member,,,,https://www.chf.bc.ca/co-op/?id=0011500001L5jwWAAR,
,-123.07198632,49.27333302,Charles Square Housing Co-operative,Non-Profit,Co-operative Housing Federation of BC (CHF BC) Member,,,,https://www.chf.bc.ca/co-op/?id=0011500001L5jtuAAB,
,-123.12571992,49.26572477,Charleston Terrace Housing Co-operative,Non-Profit,Co-operative Housing Federation of BC (CHF BC) Member,,,,https://www.chf.bc.ca/co-op/?id=0011500001L5jtKAAR,
,-121.93543,49.17437,Cheam Housing Co-operative,Non-Profit,Co-operative Housing Federation of BC (CHF BC) Member,,,,https://www.chf.bc.ca/co-op/?id=0011500001L5jtLAAR,
,-123.07922139,49.26307424,China Creek Housing Co-operative,Non-Profit,Co-operative Housing Federation of BC (CHF BC) Member,,,,https://www.chf.bc.ca/co-op/?id=0011500001L5jwRAAR,
,-123.02479866,49.20740913,City Edge Housing Co-operative,Non-Profit,Co-operative Housing Federation of BC (CHF BC) Member,,,,https://www.chf.bc.ca/co-op/?id=0011500001L5jvTAAR,
,-123.10039806,49.27563582,City Gate Housing Co-operative,Non-Profit,Co-operative Housing Federation of BC (CHF BC) Member,,,,https://www.chf.bc.ca/co-op/?id=0011500001L5jwsAAB,
,-119.58699,49.47423,Clarendon Hall Co-operative Tenants' Association,Non-Profit,Co-operative Housing Federation of BC (CHF BC) Member,,,,https://www.chf.bc.ca/co-op/?id=0011500001L5jtNAAR,
,-122.32423,49.06002,Clearwater Housing Co-operative,Non-Profit,Co-operative Housing Federation of BC (CHF BC) Member,,,,https://www.chf.bc.ca/co-op/?id=0011500001L5juTAAR,
,-123.12895356,49.29092964,Coal Harbour Housing Co-operative,Non-Profit,Co-operative Housing Federation of BC (CHF BC) Member,,,,https://www.chf.bc.ca/co-op/?id=0011500001L5jwnAAB,
,-123.02973841,49.23530774,Collingwood Village Housing Co-operative,Non-Profit,Co-operative Housing Federation of BC (CHF BC) Member,,,,https://www.chf.bc.ca/co-op/?id=0011500001L5jwtAAB,
,-122.86204,49.03234,Common Ground Housing Co-operative,Non-Profit,Co-operative Housing Federation of BC (CHF BC) Member,,,,https://www.chf.bc.ca/co-op/?id=0011500001L5jtjAAB,
,-123.14884018,49.27007463,Community Alternatives Housing Co-operative,Non-Profit,Co-operative Housing Federation of BC (CHF BC) Member,,,,https://www.chf.bc.ca/co-op/?id=0011500001L5ju1AAB,
,-123.11596251,49.26801477,Connaught Housing Co-operative,Non-Profit,Co-operative Housing Federation of BC (CHF BC) Member,,,,https://www.chf.bc.ca/co-op/?id=0011500001L5juOAAR,
,-123.11963072,49.25726946,Coop√©rative d'habitation Demers,Non-Profit,Co-operative Housing Federation of BC (CHF BC) Member,,,,https://www.chf.bc.ca/co-op/?id=0011500001L5jtFAAR,
,-123.09832,49.28409,Core Artists Live-Work Cooperative,Non-Profit,Co-operative Housing Federation of BC (CHF BC) Member,,,,https://www.chf.bc.ca/co-op/?id=0011500001L5jwxAAB,
,-122.89194,49.12744,Cougar Canyon Housing Co-operative,Non-Profit,Co-operative Housing Federation of BC (CHF BC) Member,,,,https://www.chf.bc.ca/co-op/?id=0011500001L5jvaAAB,
,-123.42916,48.45165,Craigflower Housing Cooperative,Non-Profit,Co-operative Housing Federation of BC (CHF BC) Member,,,,https://www.chf.bc.ca/co-op/?id=0011500001L5juBAAR,
,-123.39027,48.44616,Craigilea Housing Cooperative,Non-Profit,Co-operative Housing Federation of BC (CHF BC) Member,,,,https://www.chf.bc.ca/co-op/?id=0011500001L5ju5AAB,
,-123.09195,49.32227,Creekside Housing Co-operative,Non-Profit,Co-operative Housing Federation of BC (CHF BC) Member,,,,https://www.chf.bc.ca/co-op/?id=0011500001L5jtvAAB,
,-123.1370449,49.26932061,Creekview Housing Co-operative,Non-Profit,Co-operative Housing Federation of BC (CHF BC) Member,,,,https://www.chf.bc.ca/co-op/?id=0011500001L5jvRAAR,
,-123.046255,49.089171,Crescent Downs Housing Co-operative,Non-Profit,Co-operative Housing Federation of BC (CHF BC) Member,,,,https://www.chf.bc.ca/co-op/?id=0011500001LxSAnAAN,
,-123.09676819,49.23083693,Crossroads Housing Co-operative,Non-Profit,Co-operative Housing Federation of BC (CHF BC) Member,,,,https://www.chf.bc.ca/co-op/?id=0011500001L5jt0AAB,
,-123.14167259,49.20734942,David Wetherow Housing Co-operative,Non-Profit,Co-operative Housing Federation of BC (CHF BC) Member,,,,https://www.chf.bc.ca/co-op/?id=0011500001L5jv5AAB,
,-123.02554929,49.2228022,DeCosmos Village Housing Co-operative,Non-Profit,Co-operative Housing Federation of BC (CHF BC) Member,,,,https://www.chf.bc.ca/co-op/?id=0011500001L5jw2AAB,
,-123.09067,49.18921,Delta Green Housing Co-operative,Non-Profit,Co-operative Housing Federation of BC (CHF BC) Member,,,,https://www.chf.bc.ca/co-op/?id=0011500001L5jvtAAB,
,-122.60778,49.2205,Devonshire Court Housing Co-operative,Non-Profit,Co-operative Housing Federation of BC (CHF BC) Member,,,,https://www.chf.bc.ca/co-op/?id=0011500001L5juDAAR,
,-123.11952103,49.25905197,Domego Housing Co-operative,Non-Profit,Co-operative Housing Federation of BC (CHF BC) Member,,,,https://www.chf.bc.ca/co-op/?id=0011500001L5ju3AAB,
,-123.19175,49.27103,Dunbar Village Community Co-operative,Non-Profit,Co-operative Housing Federation of BC (CHF BC) Member,,,,https://www.chf.bc.ca/co-op/?id=0011500001L5juMAAR,
,-123.04678992,49.23580848,Dundee Court Housing Co-operative,Non-Profit,Co-operative Housing Federation of BC (CHF BC) Member,,,,https://www.chf.bc.ca/co-op/?id=0011500001L5jtBAAR,
,-123.13433186,49.20534612,Eburne Landing Housing Co-operative,Non-Profit,Co-operative Housing Federation of BC (CHF BC) Member,,,,https://www.chf.bc.ca/co-op/?id=0011500001L5jtYAAR,
,-122.95359,49.21705,Edmonds Place Housing Co-operative,Non-Profit,Co-operative Housing Federation of BC (CHF BC) Member,,,,https://www.chf.bc.ca/co-op/?id=0011500001L5jvlAAB,
,-123.11584604,49.25295523,Eight Oaks Housing Co-operative,Non-Profit,Co-operative Housing Federation of BC (CHF BC) Member,,,,https://www.chf.bc.ca/co-op/?id=0011500001L5juUAAR,
,-123.08876201,49.26456896,Emma G Housing Co-operative,Non-Profit,Co-operative Housing Federation of BC (CHF BC) Member,,,,https://www.chf.bc.ca/co-op/?id=0011500001L5jvVAAR,
,-122.81872,49.28145,Falcon Crest Estates Co-operative,Non-Profit,Co-operative Housing Federation of BC (CHF BC) Member,,,,https://www.chf.bc.ca/co-op/?id=0011500001Kke20AAB,
,-123.12174954,49.26694875,False Creek Co-operative Housing Association,Non-Profit,Co-operative Housing Federation of BC (CHF BC) Member,,,,https://www.chf.bc.ca/co-op/?id=0011500001L5jwIAAR,
,-123.10861889,49.27064319,First Avenue Athletes Village Housing Co-operative,Non-Profit,Co-operative Housing Federation of BC (CHF BC) Member,,,,https://www.chf.bc.ca/co-op/?id=0011500001L5jx5AAB,
,-122.69552,49.22244,Ford Road Housing Co-operative,Non-Profit,Co-operative Housing Federation of BC (CHF BC) Member,,,,https://www.chf.bc.ca/co-op/?id=0011500001Kke32AAB,
,-123.43572,48.45306,Four Mile Heights Housing Cooperative,Non-Profit,Co-operative Housing Federation of BC (CHF BC) Member,,,,https://www.chf.bc.ca/co-op/?id=0011500001L5jwDAAR,
,-123.10094244,49.28342665,Four Sisters Housing Co-operative,Non-Profit,Co-operative Housing Federation of BC (CHF BC) Member,,,,https://www.chf.bc.ca/co-op/?id=0011500001L5jssAAB,
,-123.72052,48.38408,Frances Gardens Housing Cooperative,Non-Profit,Co-operative Housing Federation of BC (CHF BC) Member,,,,https://www.chf.bc.ca/co-op/?id=0011500001Kke3BAAR,
,-122.90677,49.2201,Fraser River Place Housing Co-operative,Non-Profit,Co-operative Housing Federation of BC (CHF BC) Member,,,,https://www.chf.bc.ca/co-op/?id=0011500001L5juhAAB,
,-123.047712,49.206317,Fraserview Housing Co-operative,Non-Profit,Co-operative Housing Federation of BC (CHF BC) Member,,,,https://www.chf.bc.ca/co-op/?id=0011500001L5olpAAB,
,-123.049040,49.206400,Fraserview Towers Housing Co-operative,Non-Profit,Co-operative Housing Federation of BC (CHF BC) Member,,,,https://www.chf.bc.ca/co-op/?id=0011C00002cI4V0QAK,
,-123.40021,48.6551,Friendship Housing Cooperative,Non-Profit,Co-operative Housing Federation of BC (CHF BC) Member,,,,https://www.chf.bc.ca/co-op/?id=0011500001L5jtJAAR,
,-122.80392,49.27998,Garden Court Housing Co-operative,Non-Profit,Co-operative Housing Federation of BC (CHF BC) Member,,,,https://www.chf.bc.ca/co-op/?id=0011500001L5jsxAAB,
,-123.01983,49.23802,Garden Square Housing Co-operative,Non-Profit,Co-operative Housing Federation of BC (CHF BC) Member,,,,https://www.chf.bc.ca/co-op/?id=0011500001L5jwdAAB,
,-123.1922,49.12918,Garry Point Housing Cooperative,Non-Profit,Co-operative Housing Federation of BC (CHF BC) Member,,,,https://www.chf.bc.ca/co-op/?id=0011500001L5jvyAAB,
,-123.06888997,49.27729408,Grace MacInnis Housing Co-operative,Non-Profit,Co-operative Housing Federation of BC (CHF BC) Member,,,,https://www.chf.bc.ca/co-op/?id=0011500001Kke4UAAR,
,-123.07487688,49.27517545,Grandview Co-operative Housing Association,Non-Profit,Co-operative Housing Federation of BC (CHF BC) Member,,,,https://www.chf.bc.ca/co-op/?id=0011500001L5jtbAAB,
,-123.16457,49.16342,Granville Gardens Housing Co-operative,Non-Profit,Co-operative Housing Federation of BC (CHF BC) Member,,,,https://www.chf.bc.ca/co-op/?id=0011500001L5jvqAAB,
,-123.12839,49.26827,Greater Vancouver Floating Home Co-operative,Equity,Co-operative Housing Federation of BC (CHF BC) Member,,,,https://www.chf.bc.ca/co-op/?id=0011500001LxSAoAAN,
,-123.0887,49.1876,Greenland Housing Co-operative,Non-Profit,Co-operative Housing Federation of BC (CHF BC) Member,,,,https://www.chf.bc.ca/co-op/?id=0011500001L5jvrAAB,
,-123.36543,48.45044,Greenway Housing Cooperative,Non-Profit,Co-operative Housing Federation of BC (CHF BC) Member,,,,https://www.chf.bc.ca/co-op/?id=0011500001L5juKAAR,
,-123.09531965,49.23041224,Griffin's Walk Housing Cooperative,Non-Profit,Co-operative Housing Federation of BC (CHF BC) Member,,,,https://www.chf.bc.ca/co-op/?id=0011500001L5juqAAB,
,-122.7898,49.18713,Guildtown Housing Co-operative,Non-Profit,Co-operative Housing Federation of BC (CHF BC) Member,,,,https://www.chf.bc.ca/co-op/?id=0011500001L5jwXAAR,
,-123.0282517,49.23143252,H.W. Flesher Housing Co-operative,Non-Profit,Co-operative Housing Federation of BC (CHF BC) Member,,,,https://www.chf.bc.ca/co-op/?id=0011500001L5jutAAB,
,-122.90626,49.24918,Halston Hills Housing Co-operative,Non-Profit,Co-operative Housing Federation of BC (CHF BC) Member,,,,https://www.chf.bc.ca/co-op/?id=0011500001L5jvbAAB,
,-122.58483,49.21659,Haney Pioneer Village Co-operative,Non-Profit,Co-operative Housing Federation of BC (CHF BC) Member,,,,https://www.chf.bc.ca/co-op/?id=0011500001L5jtVAAR,
,-123.14128903,49.27205665,Harbour Cove Housing Co-operative,Non-Profit,Co-operative Housing Federation of BC (CHF BC) Member,,,,https://www.chf.bc.ca/co-op/?id=0011500001L5jvcAAB,
,-123.07841,49.08908,Harbour Manor Housing Co-operative,Non-Profit,Co-operative Housing Federation of BC (CHF BC) Member,,,,https://www.chf.bc.ca/co-op/?id=0011500001L5jv6AAB,
,-122.68819,49.21906,Harris Road Housing Co-operative,Non-Profit,Co-operative Housing Federation of BC (CHF BC) Member,,,,https://www.chf.bc.ca/co-op/?id=0011500001L5jtsAAB,
,-123.50732,48.45088,Hatley Park Housing Cooperative,Non-Profit,Co-operative Housing Federation of BC (CHF BC) Member,,,,https://www.chf.bc.ca/co-op/?id=0011500001L5jwbAAB,
,-122.83631,49.13356,Hawthorne Housing Co-operative,Non-Profit,Co-operative Housing Federation of BC (CHF BC) Member,,,,https://www.chf.bc.ca/co-op/?id=0011500001L5jv7AAB,
,-123.34705,48.4411,Heatheridge Housing Cooperative,Non-Profit,Co-operative Housing Federation of BC (CHF BC) Member,,,,https://www.chf.bc.ca/co-op/?id=0011500001L5ju7AAB,
,-123.1536261,49.27104183,Helen's Court Co-operative Housing Association,Non-Profit,Co-operative Housing Federation of BC (CHF BC) Member,,,,https://www.chf.bc.ca/co-op/?id=0011500001L5jwFAAR,
,-123.12042184,49.26446677,Heritage Housing Co-operative,Non-Profit,Co-operative Housing Federation of BC (CHF BC) Member,,,,https://www.chf.bc.ca/co-op/?id=0011500001L5jswAAB,
,-123.09149,49.18647,Heron Court Housing Co-operative,Non-Profit,Co-operative Housing Federation of BC (CHF BC) Member,,,,https://www.chf.bc.ca/co-op/?id=0011500001L5jvzAAB,
,-122.92045,49.26466,Hillside Place Housing Co-operative,Non-Profit,Co-operative Housing Federation of BC (CHF BC) Member,,,,https://www.chf.bc.ca/co-op/?id=0011500001L5jviAAB,
,-123.39282,48.48576,Homeward Housing Co-operative,Non-Profit,Co-operative Housing Federation of BC (CHF BC) Member,,,,https://www.chf.bc.ca/co-op/?id=0011500001L5juNAAR,
,-122.80088,49.28402,Hoy Creek Housing Co-operative,Non-Profit,Co-operative Housing Federation of BC (CHF BC) Member,,,,https://www.chf.bc.ca/co-op/?id=0011500001L5juGAAR,
,-122.88483,49.12902,Hunter Hill Housing Cooperative,Non-Profit,Co-operative Housing Federation of BC (CHF BC) Member,,,,https://www.chf.bc.ca/co-op/?id=0011500001L5jwuAAB,
,-120.8162,56.23818,Huntington Place Housing Co-operative,Non-Profit,Co-operative Housing Federation of BC (CHF BC) Member,,,,https://www.chf.bc.ca/co-op/?id=0011500001L5jwUAAR,
,-119.28808,50.69316,Ida Vista Housing Co-operative,Non-Profit,Co-operative Housing Federation of BC (CHF BC) Member,,,,https://www.chf.bc.ca/co-op/?id=0011500001L5judAAB,
,-122.96194,49.31771,Indian River Housing Co-operative,Non-Profit,Co-operative Housing Federation of BC (CHF BC) Member,,,,https://www.chf.bc.ca/co-op/?id=0011500001L5jtXAAR,
,-123.14821914,49.27094519,Inti Housing Co-operative (1985),Non-Profit,Co-operative Housing Federation of BC (CHF BC) Member,,,,https://www.chf.bc.ca/co-op/?id=0011500001L5juoAAB,
,-123.09310787,49.28241323,Jackson Avenue Housing Co-operative,Non-Profit,Co-operative Housing Federation of BC (CHF BC) Member,,,,https://www.chf.bc.ca/co-op/?id=0011500001L5jwyAAB,
,-123.3849,48.41657,James Bay Co-operative Housing Association,Non-Profit,Co-operative Housing Federation of BC (CHF BC) Member,,,,https://www.chf.bc.ca/co-op/?id=0011500001L5jvhAAB,
,-123.08761087,49.2645604,Jasmine Place Housing Co-operative,Non-Profit,Co-operative Housing Federation of BC (CHF BC) Member,,,,https://www.chf.bc.ca/co-op/?id=0011500001L5jv2AAB,
,-123.15092794,49.26749853,Juniper Co-operative Community Housing Association,Non-Profit,Co-operative Housing Federation of BC (CHF BC) Member,,,,https://www.chf.bc.ca/co-op/?id=0011500001L5jvWAAR,
,-123.39193,48.48627,Kailasa Housing Cooperative,Non-Profit,Co-operative Housing Federation of BC (CHF BC) Member,,,,https://www.chf.bc.ca/co-op/?id=0011500001Kke82AAB,
,-123.03056313,49.21811899,Kanata Co-operative Housing Association,Non-Profit,Co-operative Housing Federation of BC (CHF BC) Member,,,,https://www.chf.bc.ca/co-op/?id=0011500001L5jtZAAR,
,-123.04775452,49.25738833,Kaslo Gardens Housing Co-operative,Non-Profit,Co-operative Housing Federation of BC (CHF BC) Member,,,,https://www.chf.bc.ca/co-op/?id=0011500001L5juxAAB,
,-123.159869,49.236506,Kerrisdale Crest Apts. Co-operative Association,Equity,Co-operative Housing Federation of BC (CHF BC) Member,,,,https://www.chf.bc.ca/co-op/?id=0011500001L5jtwAAB,
,-123.04367102,49.21915358,Killarney Gardens Housing Co-operative,Non-Profit,Co-operative Housing Federation of BC (CHF BC) Member,,,,https://www.chf.bc.ca/co-op/?id=0011500001L5jwNAAR,
,-123.02878208,49.21247171,Kinross Creek Housing Co-operative,Non-Profit,Co-operative Housing Federation of BC (CHF BC) Member,,,,https://www.chf.bc.ca/co-op/?id=0011500001L5jwJAAR,
,-123.039995,49.207433,Kinship Housing Co-operative,Non-Profit,Co-operative Housing Federation of BC (CHF BC) Member,,,,https://www.chf.bc.ca/co-op/?id=0011C00002nx5gXQAQ,
,-123.16534964,49.26375564,Kitsilano Terrace Housing Co-operative,Non-Profit,Co-operative Housing Federation of BC (CHF BC) Member,,,,https://www.chf.bc.ca/co-op/?id=0011500001L5jtoAAB,
,-123.15791342,49.26419383,Kitsun Co-operative Housing,Non-Profit,Co-operative Housing Federation of BC (CHF BC) Member,,,,https://www.chf.bc.ca/co-op/?id=0011500001L5jsnAAB,
,-123.17733,49.13374,Klahanie Co-operative Housing Association,Non-Profit,Co-operative Housing Federation of BC (CHF BC) Member,,,,https://www.chf.bc.ca/co-op/?id=0011500001L5junAAB,
,-123.40717,48.48097,Krisineleos Housing Cooperative,Non-Profit,Co-operative Housing Federation of BC (CHF BC) Member,,,,https://www.chf.bc.ca/co-op/?id=0011500001L5jw9AAB,
,-122.74605,49.10591,La Casa Housing Cooperative,Non-Profit,Co-operative Housing Federation of BC (CHF BC) Member,,,,https://www.chf.bc.ca/co-op/?id=0011500001L5jwHAAR,
,-123.02619985,49.21703561,La Petite Maison Co-operative Housing Association,Non-Profit,Co-operative Housing Federation of BC (CHF BC) Member,,,,https://www.chf.bc.ca/co-op/?id=0011500001KkeGEAAZ,
,-123.06277581,49.25992897,Lakewood Terrace Housing Co-operative,Non-Profit,Co-operative Housing Federation of BC (CHF BC) Member,,,,https://www.chf.bc.ca/co-op/?id=0011500001L5jwTAAR,
,-123.4157,48.4335,Lang Cove Housing Cooperative,Non-Profit,Co-operative Housing Federation of BC (CHF BC) Member,,,,https://www.chf.bc.ca/co-op/?id=0011500001L5jvKAAR,
,-123.07614157,49.26900321,Laura Jamieson Housing Co-operative,Non-Profit,Co-operative Housing Federation of BC (CHF BC) Member,,,,https://www.chf.bc.ca/co-op/?id=0011500001L5juaAAB,
,-123.38836,48.47801,Lavender Housing Cooperative,Non-Profit,Co-operative Housing Federation of BC (CHF BC) Member,,,,https://www.chf.bc.ca/co-op/?id=0011500001L5juIAAR,
,-123.02601179,49.20962267,Le Coeur Housing Co-operative,Non-Profit,Co-operative Housing Federation of BC (CHF BC) Member,,,,https://www.chf.bc.ca/co-op/?id=0011500001KkdwlAAB,
,-123.06880418,49.28051041,Levellers' Housing Co-operative,Non-Profit,Co-operative Housing Federation of BC (CHF BC) Member,,,,https://www.chf.bc.ca/co-op/?id=0011500001L5jwYAAR,
,-122.31649,49.1409,Lock Lane Housing Co-operative,Non-Profit,Co-operative Housing Federation of BC (CHF BC) Member,,,,https://www.chf.bc.ca/co-op/?id=0011500001L5jvJAAR,
,-123.09841302,49.27881639,Lore Krill Housing Cooperative,Non-Profit,Co-operative Housing Federation of BC (CHF BC) Member,,,,https://www.chf.bc.ca/co-op/?id=0011500001L5jwqAAB,
,-123.04396,49.3326,Lynn Valley Co-operative Housing,Non-Profit,Co-operative Housing Federation of BC (CHF BC) Member,,,,https://www.chf.bc.ca/co-op/?id=0011500001L5jtxAAB,
,-123.12437,49.28469,Manhattan Co-operative Housing Association,Non-Profit,Co-operative Housing Federation of BC (CHF BC) Member,,,,https://www.chf.bc.ca/co-op/?id=0011500001L5jskAAB,
,-123.15173449,49.26495895,Maple Creek Housing Co-operative,Non-Profit,Co-operative Housing Federation of BC (CHF BC) Member,,,,https://www.chf.bc.ca/co-op/?id=0011500001KkeAnAAJ,
,-123.39435,48.46486,Marigold Co-operative Housing Association,Non-Profit,Co-operative Housing Federation of BC (CHF BC) Member,,,,https://www.chf.bc.ca/co-op/?id=0011500001L5jwCAAR,
,-123.14070438,49.2708485,Marina Housing Co-operative,Non-Profit,Co-operative Housing Federation of BC (CHF BC) Member,,,,https://www.chf.bc.ca/co-op/?id=0011500001L5jvnAAB,
,-123.14347965,49.20760295,Marine Court Housing Co-operative,Non-Profit,Co-operative Housing Federation of BC (CHF BC) Member,,,,https://www.chf.bc.ca/co-op/?id=0011500001L5jugAAB,
,-123.0784,49.08759,Mariner Cove Housing Co-operative,Non-Profit,Co-operative Housing Federation of BC (CHF BC) Member,,,,https://www.chf.bc.ca/co-op/?id=0011500001L5jwMAAR,
,-123.14269428,49.20753063,Marpole Terrace Housing Co-operative,Non-Profit,Co-operative Housing Federation of BC (CHF BC) Member,,,,https://www.chf.bc.ca/co-op/?id=0011500001L5jubAAB,
,-123.02641787,49.21275024,Matheson Heights Housing Co-operative,Non-Profit,Co-operative Housing Federation of BC (CHF BC) Member,,,,https://www.chf.bc.ca/co-op/?id=0011500001L5jw6AAB,
,-123.0957684,49.27984549,Mau Dan Gardens Housing Co-operative,Non-Profit,Co-operative Housing Federation of BC (CHF BC) Member,,,,https://www.chf.bc.ca/co-op/?id=0011500001L5jveAAB,
,-123.14784,49.13557,Maya Housing Co-operative,Non-Profit,Co-operative Housing Federation of BC (CHF BC) Member,,,,https://www.chf.bc.ca/co-op/?id=0011500001L5jvvAAB,
,-122.8497,49.19166,Mayflower Co-operative Housing Association,Non-Profit,Co-operative Housing Federation of BC (CHF BC) Member,,,,https://www.chf.bc.ca/co-op/?id=0011500001L5jspAAB,
,-122.67631,49.21821,Meadow Highlands Mobile Home Co-operative,Non-Profit,Co-operative Housing Federation of BC (CHF BC) Member,,,,https://www.chf.bc.ca/co-op/?id=0011500001L5jvfAAB,
,-123.14364,49.15808,Meadow Walk Housing Co-operative,Non-Profit,Co-operative Housing Federation of BC (CHF BC) Member,,,,https://www.chf.bc.ca/co-op/?id=0011500001L5jvkAAB,
,-122.69187,49.22613,Meadowlands Housing Co-operative,Non-Profit,Co-operative Housing Federation of BC (CHF BC) Member,,,,https://www.chf.bc.ca/co-op/?id=0011500001L5jwAAAR,
,-122.95356,49.21233,Medina Housing Co-operative,Non-Profit,Co-operative Housing Federation of BC (CHF BC) Member,,,,https://www.chf.bc.ca/co-op/?id=0011500001L5jsyAAB,
,-123.15780793,49.2723574,Melton Court Co-operative Housing Association,Non-Profit,Co-operative Housing Federation of BC (CHF BC) Member,,,,https://www.chf.bc.ca/co-op/?id=0011500001L5jtQAAR,
,-122.31829,49.13606,Mission Cooperative Housing Association,Non-Profit,Co-operative Housing Federation of BC (CHF BC) Member,,,,https://www.chf.bc.ca/co-op/?id=0011500001L5jx6AAB,
,-122.9077,49.26219,Misty Ridge Housing Co-operative,Non-Profit,Co-operative Housing Federation of BC (CHF BC) Member,,,,https://www.chf.bc.ca/co-op/?id=0011500001L5jwPAAR,
,-123.3487,48.42792,Mitraniketan Housing Co-operative,Non-Profit,Co-operative Housing Federation of BC (CHF BC) Member,,,,https://www.chf.bc.ca/co-op/?id=0011500001L5jvZAAR,
,-123.01863,49.25637,Mosaico (1985) Housing Co-operative,Non-Profit,Co-operative Housing Federation of BC (CHF BC) Member,,,,https://www.chf.bc.ca/co-op/?id=0011500001L5jtAAAR,
,-123.09572,49.32517,Mosquito Creek Housing Co-operative,Non-Profit,Co-operative Housing Federation of BC (CHF BC) Member,,,,https://www.chf.bc.ca/co-op/?id=0011500001L5jtaAAB,
,-122.87782,49.27117,Mountain View Co-operative Housing Association,Non-Profit,Co-operative Housing Federation of BC (CHF BC) Member,,,,https://www.chf.bc.ca/co-op/?id=0011500001L5ju0AAB,
,-122.96672,49.31707,Mt. Seymour Park Housing Co-operative,Non-Profit,Co-operative Housing Federation of BC (CHF BC) Member,,,,https://www.chf.bc.ca/co-op/?id=0011500001KkeCUAAZ,
,-122.82759,49.28544,Noons Creek Housing Co-operative,Non-Profit,Co-operative Housing Federation of BC (CHF BC) Member,,,,https://www.chf.bc.ca/co-op/?id=0011500001L5jsrAAB,
,-120.365371,50.696738,Norkam Seniors Housing Co-op Association,Equity,Co-operative Housing Federation of BC (CHF BC) Member,,,,https://www.chf.bc.ca/co-op/?id=0011500001LxSAgAAN,
,-122.90814,49.25946,Norman Bethune Co-operative Housing Association,Non-Profit,Co-operative Housing Federation of BC (CHF BC) Member,,,,https://www.chf.bc.ca/co-op/?id=0011500001L5juwAAB,
,-123.39168,48.48621,North Ridge Housing Cooperative,Non-Profit,Co-operative Housing Federation of BC (CHF BC) Member,,,,https://www.chf.bc.ca/co-op/?id=0011500001KkeDlAAJ,
,-123.09872,49.32327,North Shore Housing Co-operative,Non-Profit,Co-operative Housing Federation of BC (CHF BC) Member,,,,https://www.chf.bc.ca/co-op/?id=0011500001L5jwGAAR,
,-123.09065341,49.26639799,Northern Way Housing Co-operative,Non-Profit,Co-operative Housing Federation of BC (CHF BC) Member,,,,https://www.chf.bc.ca/co-op/?id=0011500001L5jwOAAR,
,-122.95528,49.28169,Nova Vita Housing Co-operative,Non-Profit,Co-operative Housing Federation of BC (CHF BC) Member,,,,https://www.chf.bc.ca/co-op/?id=0011500001L5jtOAAR,
,-123.30961,48.42578,Oak Bay Housing Cooperative,Non-Profit,Co-operative Housing Federation of BC (CHF BC) Member,,,,https://www.chf.bc.ca/co-op/?id=0011500001L5jtrAAB,
,-119.412,49.8906,Okanagan Housing Cooperative Association,Non-Profit,Co-operative Housing Federation of BC (CHF BC) Member,,,,https://www.chf.bc.ca/co-op/?id=0011500001L5jtgAAB,
,-123.36682,48.45446,Orchard Green Housing Cooperative,Non-Profit,Co-operative Housing Federation of BC (CHF BC) Member,,,,https://www.chf.bc.ca/co-op/?id=0011500001L5juPAAR,
,-123.13273637,49.27756532,Pacific Heights Housing Co-operative,Non-Profit,Co-operative Housing Federation of BC (CHF BC) Member,,,,https://www.chf.bc.ca/co-op/?id=0011500001L5jvxAAB,
,-123.129586,49.26159,Pacific Housing Co-operative,Equity,Co-operative Housing Federation of BC (CHF BC) Member,,,,https://www.chf.bc.ca/co-op/?id=0011500001LxSAhAAN,
,-123.03003447,49.23126023,Pacific Park Place (1985) Housing Co-operative,Non-Profit,Co-operative Housing Federation of BC (CHF BC) Member,,,,https://www.chf.bc.ca/co-op/?id=0011500001L5jvXAAR,
,-123.07135898,49.26755366,Paloma Housing Co-operative,Non-Profit,Co-operative Housing Federation of BC (CHF BC) Member,,,,https://www.chf.bc.ca/co-op/?id=0011500001L5jvjAAB,
,-122.973739,49.317254,Parkgate Housing Co-operative,Equity,Co-operative Housing Federation of BC (CHF BC) Member,,,,https://www.chf.bc.ca/co-op/?id=0011500001LxSAjAAN,
,-123.18996814,49.27107928,Penta Co-operative Housing Association,Non-Profit,Co-operative Housing Federation of BC (CHF BC) Member,,,,https://www.chf.bc.ca/co-op/?id=0011500001L5juEAAR,
,-123.43633,48.45816,Pheasant Meadows Housing Cooperative,Non-Profit,Co-operative Housing Federation of BC (CHF BC) Member,,,,https://www.chf.bc.ca/co-op/?id=0011500001L5juXAAR,
,-123.15003674,49.26442777,Phoenix Court Housing Co-operative,Non-Profit,Co-operative Housing Federation of BC (CHF BC) Member,,,,https://www.chf.bc.ca/co-op/?id=0011500001L5jw4AAB,
,-122.91343,49.26492,Pine Ridge Housing Co-operative,Non-Profit,Co-operative Housing Federation of BC (CHF BC) Member,,,,https://www.chf.bc.ca/co-op/?id=0011500001KkeGZAAZ,
,-123.39184,48.43563,Pioneer Housing Co-operative Association,Non-Profit,Co-operative Housing Federation of BC (CHF BC) Member,,,,https://www.chf.bc.ca/co-op/?id=0011500001L5jvBAAR,
,-122.47357,49.00233,Pioneer Park Cooperative Housing Association,Non-Profit,Co-operative Housing Federation of BC (CHF BC) Member,,,,https://www.chf.bc.ca/co-op/?id=0011500001L5jtMAAR,
,-123.01147,49.22634,Post 83 Housing Co-operative,Non-Profit,Co-operative Housing Federation of BC (CHF BC) Member,,,,https://www.chf.bc.ca/co-op/?id=0011500001L5jucAAB,
,-122.91909,49.20341,Queens Avenue Housing Co-operative,Non-Profit,Co-operative Housing Federation of BC (CHF BC) Member,,,,https://www.chf.bc.ca/co-op/?id=0011500001L5jtUAAR,
,-122.90563,49.21805,Queens Park Housing Co-operative,Non-Profit,Co-operative Housing Federation of BC (CHF BC) Member,,,,https://www.chf.bc.ca/co-op/?id=0011500001L5juAAAR,
,-123.102788329,49.270373787,Railyard Housing Co-operative,Non-Profit,Co-operative Housing Federation of BC (CHF BC) Member,,,,https://www.chf.bc.ca/co-op/?id=0011C00001t3dKjQAI,
,-123.0099,49.22892,Rainbow's End Housing Co-operative,Non-Profit,Co-operative Housing Federation of BC (CHF BC) Member,,,,https://www.chf.bc.ca/co-op/?id=0011500001L5jwlAAB,
,-120.357403,50.676128,Rarebirds Housing Co-operative,Equity,Co-operative Housing Federation of BC (CHF BC) Member,,,,https://www.chf.bc.ca/co-op/?id=0011500001LxSApAAN,
,-123.16456,49.12088,Richmond Heights Housing Co-operative,Non-Profit,Co-operative Housing Federation of BC (CHF BC) Member,,,,https://www.chf.bc.ca/co-op/?id=0011500001L5ju8AAB,
,-123.14150123,49.20682197,Rishon Housing Co-operative,Non-Profit,Co-operative Housing Federation of BC (CHF BC) Member,,,,https://www.chf.bc.ca/co-op/?id=0011500001L5jvHAAR,
,-123.07218136,49.26573514,Rising Star Housing Co-operative,Non-Profit,Co-operative Housing Federation of BC (CHF BC) Member,,,,https://www.chf.bc.ca/co-op/?id=0011500001L5jstAAB,
,-123.12849,49.16265,River Mist Housing Co-operative,Non-Profit,Co-operative Housing Federation of BC (CHF BC) Member,,,,https://www.chf.bc.ca/co-op/?id=0011500001L5jvmAAB,
,-122.9687,49.31959,River Woods Housing Co-operative,Non-Profit,Co-operative Housing Federation of BC (CHF BC) Member,,,,https://www.chf.bc.ca/co-op/?id=0011500001KkeIrAAJ,
,-123.18125,49.12928,River's End Housing Co-operative,Non-Profit,Co-operative Housing Federation of BC (CHF BC) Member,,,,https://www.chf.bc.ca/co-op/?id=0011500001KkeIiAAJ,
,-122.91652,49.19892,Riverbend Housing Co-operative,Non-Profit,Co-operative Housing Federation of BC (CHF BC) Member,,,,https://www.chf.bc.ca/co-op/?id=0011500001KkeIlAAJ,
,-123.06053178,49.2067025,Riverside Landing Housing Co-operative,Non-Profit,Co-operative Housing Federation of BC (CHF BC) Member,,,,https://www.chf.bc.ca/co-op/?id=0011500001KkeIpAAJ,
,-123.08854,49.18459,Robert Owen Housing Co-operative,Non-Profit,Co-operative Housing Federation of BC (CHF BC) Member,,,,https://www.chf.bc.ca/co-op/?id=0011500001L5jvwAAB,
,-123.09273013,49.25909002,Robson Park Co-operative Housing Association,Non-Profit,Co-operative Housing Federation of BC (CHF BC) Member,,,,https://www.chf.bc.ca/co-op/?id=0011500001L5juzAAB,
,-123.0858665,49.28037655,Rose Garden Co-operative Housing Society,Non-Profit,Co-operative Housing Federation of BC (CHF BC) Member,,,,https://www.chf.bc.ca/co-op/?id=0011500001L5jvPAAR,
,-123.12091871,49.27286767,Roundhouse Co-operative Housing Association,Non-Profit,Co-operative Housing Federation of BC (CHF BC) Member,,,,https://www.chf.bc.ca/co-op/?id=0011500001L5juSAAR,
,-120.34687,50.64717,Sahali Housing Co-operative,Non-Profit,Co-operative Housing Federation of BC (CHF BC) Member,,,,https://www.chf.bc.ca/co-op/?id=0011500001L5jtCAAR,
,-122.82446,49.28727,Salal Housing Co-operative,Non-Profit,Co-operative Housing Federation of BC (CHF BC) Member,,,,https://www.chf.bc.ca/co-op/?id=0011500001L5jtDAAR,
,-123.14995826,49.27046454,Sam Greer Place Housing Co-operative,Non-Profit,Co-operative Housing Federation of BC (CHF BC) Member,,,,https://www.chf.bc.ca/co-op/?id=0011500001L5juiAAB,
,-122.88508,49.15217,Sandpiper Housing Co-operative,Non-Profit,Co-operative Housing Federation of BC (CHF BC) Member,,,,https://www.chf.bc.ca/co-op/?id=0011500001L5jvoAAB,
,-122.89278,49.22934,Sapperton Terrace Housing Co-operative,Non-Profit,Co-operative Housing Federation of BC (CHF BC) Member,,,,https://www.chf.bc.ca/co-op/?id=0011500001L5jtEAAR,
,-123.38718,48.43039,Seawalk Housing Cooperative,Non-Profit,Co-operative Housing Federation of BC (CHF BC) Member,,,,https://www.chf.bc.ca/co-op/?id=0011500001L5juLAAR,
,-122.78265,49.25459,Shaughnessy Housing Co-operative,Non-Profit,Co-operative Housing Federation of BC (CHF BC) Member,,,,https://www.chf.bc.ca/co-op/?id=0011500001L5jvdAAB,
,-122.30142,49.06015,Sherwood Forest Housing Co-operative,Non-Profit,Co-operative Housing Federation of BC (CHF BC) Member,,,,https://www.chf.bc.ca/co-op/?id=0011500001L5jvIAAR,
,-123.07305553,49.27078715,Sitka Housing Co-operative (1985),Non-Profit,Co-operative Housing Federation of BC (CHF BC) Member,,,,https://www.chf.bc.ca/co-op/?id=0011500001L5jszAAB,
,-123.1377026,49.28912892,Sojourn Housing Co-operative,Non-Profit,Co-operative Housing Federation of BC (CHF BC) Member,,,,https://www.chf.bc.ca/co-op/?id=0011500001L5jueAAB,
,-122.88731,49.17039,Solstice Housing Co-operative,Non-Profit,Co-operative Housing Federation of BC (CHF BC) Member,,,,https://www.chf.bc.ca/co-op/?id=0011500001L5jv1AAB,
,-123.55452,48.45963,Sooke Lake Modular Home Cooperative Association,Equity,Co-operative Housing Federation of BC (CHF BC) Member,,,,https://www.chf.bc.ca/co-op/?id=0011500001XfymRAAR,
,-119.46287,49.87904,Southgate Manor Co-operative Association,Non-Profit,Co-operative Housing Federation of BC (CHF BC) Member,,,,https://www.chf.bc.ca/co-op/?id=0011500001L5juWAAR,
,-123.01967,49.25636,Spectrum Housing Co-operative,Non-Profit,Co-operative Housing Federation of BC (CHF BC) Member,,,,https://www.chf.bc.ca/co-op/?id=0011500001L5jv4AAB,
,-123.346060,48.431384,Spring Ridge Co-operative Housing Association,Non-Profit,Co-operative Housing Federation of BC (CHF BC) Member,,,,https://www.chf.bc.ca/co-op/?id=0011500001L5jtcAAB,
,-122.88703,49.17158,Spruce Housing Co-operative,Non-Profit,Co-operative Housing Federation of BC (CHF BC) Member,,,,https://www.chf.bc.ca/co-op/?id=0011500001L5jsoAAB,
,-122.568286,49.219635,St. George's Village Seniors Housing Cooperative,Equity,Co-operative Housing Federation of BC (CHF BC) Member,,,,https://www.chf.bc.ca/co-op/?id=0011500001XeVYxAAN,
,-123.12054,49.26582,Stanley Noble Stronge Housing Co-operative,Non-Profit,Co-operative Housing Federation of BC (CHF BC) Member,,,,https://www.chf.bc.ca/co-op/?id=0011500001L5jvpAAB,
,-123.04889439,49.25732576,Still Creek Housing Co-operative,Non-Profit,Co-operative Housing Federation of BC (CHF BC) Member,,,,https://www.chf.bc.ca/co-op/?id=0011500001L5jwQAAR,
,-123.08921553,49.27720434,Strathcona Co-operative Housing Association,Non-Profit,Co-operative Housing Federation of BC (CHF BC) Member,,,,https://www.chf.bc.ca/co-op/?id=0011500001L5jusAAB,
,-123.03018455,49.20738444,Sunbridge Housing Co-operative,Non-Profit,Co-operative Housing Federation of BC (CHF BC) Member,,,,https://www.chf.bc.ca/co-op/?id=0011500001L5jw0AAB,
,-123.13383,49.15932,Sundune Housing Co-operative,Non-Profit,Co-operative Housing Federation of BC (CHF BC) Member,,,,https://www.chf.bc.ca/co-op/?id=0011500001L5jweAAB,
,-119.998455,49.239461,Sunkatchers R.V. Park Co-operative,Equity,Co-operative Housing Federation of BC (CHF BC) Member,,,,https://www.chf.bc.ca/co-op/?id=0011500001LxSAlAAN,
,-123.07336938,49.26574527,Sunrise Housing Co-operative,Non-Profit,Co-operative Housing Federation of BC (CHF BC) Member,,,,https://www.chf.bc.ca/co-op/?id=0011500001L5jt4AAB,
,-123.02074,49.25395,Sunset Heights Housing Co-operative,Non-Profit,Co-operative Housing Federation of BC (CHF BC) Member,,,,https://www.chf.bc.ca/co-op/?id=0011500001L5ju9AAB,
,-123.19323,49.13377,Sunset Point Housing Co-operative,Non-Profit,Co-operative Housing Federation of BC (CHF BC) Member,,,,https://www.chf.bc.ca/co-op/?id=0011500001L5jwVAAR,
,-122.85379,49.19632,Sunshine Housing Co-operative,Non-Profit,Co-operative Housing Federation of BC (CHF BC) Member,,,,https://www.chf.bc.ca/co-op/?id=0011500001L5jttAAB,
,-123.37566,48.4193,Superior Street Housing Cooperative,Non-Profit,Co-operative Housing Federation of BC (CHF BC) Member,,,,https://www.chf.bc.ca/co-op/?id=0011500001L5julAAB,
,-123.04054547,49.2351038,Synala Housing Co-operative,Non-Profit,Co-operative Housing Federation of BC (CHF BC) Member,,,,https://www.chf.bc.ca/co-op/?id=0011500001L5jvFAAR,
,-123.18463,49.16597,Terra Nova Housing Co-operative,Non-Profit,Co-operative Housing Federation of BC (CHF BC) Member,,,,https://www.chf.bc.ca/co-op/?id=0011500001L5jwkAAB,
,-122.96213,49.21037,The Brambles Housing Co-operative,Non-Profit,Co-operative Housing Federation of BC (CHF BC) Member,,,,https://www.chf.bc.ca/co-op/?id=0011500001L5jwZAAR,
,-123.03304017,49.23080241,The Chilean Housing Co-operative,Non-Profit,Co-operative Housing Federation of BC (CHF BC) Member,,,,https://www.chf.bc.ca/co-op/?id=0011500001L5jvLAAR,
,-117.297230,49.475849,The Links Housing Co-operative,Non-Profit,Co-operative Housing Federation of BC (CHF BC) Member,,,,https://www.chf.bc.ca/co-op/?id=0011500001L5jwfAAB,
,-123.10244623,49.26487539,The Manor Housing Co-operative,Non-Profit,Co-operative Housing Federation of BC (CHF BC) Member,,,,https://www.chf.bc.ca/co-op/?id=0011500001KkeAjAAJ,
,-122.62462,49.21778,The Maples Housing Co-operative,Non-Profit,Co-operative Housing Federation of BC (CHF BC) Member,,,,https://www.chf.bc.ca/co-op/?id=0011500001L5jtTAAR,
,-122.98576,49.23,The Oaklands Housing Cooperative,Non-Profit,Co-operative Housing Federation of BC (CHF BC) Member,,,,https://www.chf.bc.ca/co-op/?id=0011500001L5jsvAAB,
,-123.161974,49.269065,The Waterfront Consumers' Co-operative,Non-Profit,Co-operative Housing Federation of BC (CHF BC) Member,,,,https://www.chf.bc.ca/co-op/?id=0011500001KkeQVAAZ,
,-123.07546996,49.27463356,Tidal Flats Housing Co-operative,Non-Profit,Co-operative Housing Federation of BC (CHF BC) Member,,,,https://www.chf.bc.ca/co-op/?id=0011500001L5jtzAAB,
,-122.79567,49.04888,Totem Housing Co-operative,Non-Profit,Co-operative Housing Federation of BC (CHF BC) Member,,,,https://www.chf.bc.ca/co-op/?id=0011500001L5jtlAAB,
,-123.16483491,49.26767786,Trafalgar Co-operative Housing Association,Non-Profit,Co-operative Housing Federation of BC (CHF BC) Member,,,,https://www.chf.bc.ca/co-op/?id=0011500001L5jujAAB,
,-122.80175,49.28,Tri-Branch Co-operative Housing Association,Non-Profit,Co-operative Housing Federation of BC (CHF BC) Member,,,,https://www.chf.bc.ca/co-op/?id=0011500001L5jumAAB,
,-123.06738984,49.25527408,Trout Lake Housing Co-operative,Non-Profit,Co-operative Housing Federation of BC (CHF BC) Member,,,,https://www.chf.bc.ca/co-op/?id=0011500001L5jvQAAR,
,-123.049330,49.279089,Turner Street Housing Co-op,Non-Profit,Co-operative Housing Federation of BC (CHF BC) Member,,,,https://www.chf.bc.ca/co-op/?id=0011C00002PTeJPQA1,
,-123.36008,48.47275,Twin Oaks Housing Cooperative,Non-Profit,Co-operative Housing Federation of BC (CHF BC) Member,,,,https://www.chf.bc.ca/co-op/?id=0011500001L5jvNAAR,
,-123.13586996,49.26788454,Twin Rainbows Housing Co-operative,Non-Profit,Co-operative Housing Federation of BC (CHF BC) Member,,,,https://www.chf.bc.ca/co-op/?id=0011500001L5jw1AAB,
,-123.37871,48.43118,Tyee Housing Cooperative,Non-Profit,Co-operative Housing Federation of BC (CHF BC) Member,,,,https://www.chf.bc.ca/co-op/?id=0011500001L5jt7AAB,
,-122.83855,49.13277,Valley Village Housing Co-operative,Non-Profit,Co-operative Housing Federation of BC (CHF BC) Member,,,,https://www.chf.bc.ca/co-op/?id=0011500001L5jtWAAR,
,-123.06726741,49.27352487,Vancouver East Co-operative Housing Association,Non-Profit,Co-operative Housing Federation of BC (CHF BC) Member,,,,https://www.chf.bc.ca/co-op/?id=0011500001L5jvAAAR,
,-123.11952291,49.20965032,Vera Housing Co-operative Association,Non-Profit,Co-operative Housing Federation of BC (CHF BC) Member,,,,https://www.chf.bc.ca/co-op/?id=0011500001L5juuAAB,
,-123.06745152,49.26070528,Victoria Gardens Housing Co-operative,Non-Profit,Co-operative Housing Federation of BC (CHF BC) Member,,,,https://www.chf.bc.ca/co-op/?id=0011500001L5jufAAB,
,-123.10540528,49.26184174,View Court Housing Co-operative,Non-Profit,Co-operative Housing Federation of BC (CHF BC) Member,,,,https://www.chf.bc.ca/co-op/?id=0011500001L5jv8AAB,
,-122.88442,49.15218,Waldon Place Housing Co-operative,Non-Profit,Co-operative Housing Federation of BC (CHF BC) Member,,,,https://www.chf.bc.ca/co-op/?id=0011500001L5jt1AAB,
,-122.649,49.17698,Walnut Grove Housing Co-operative,Non-Profit,Co-operative Housing Federation of BC (CHF BC) Member,,,,https://www.chf.bc.ca/co-op/?id=0011500001L5jt5AAB,
,-123.3806,48.44743,Washington Co-operative Housing Association,Non-Profit,Co-operative Housing Federation of BC (CHF BC) Member,,,,https://www.chf.bc.ca/co-op/?id=0011500001L5juQAAR,
,-123.07496109,49.27451785,Watershed Co-operative Housing Association,Non-Profit,Co-operative Housing Federation of BC (CHF BC) Member,,,,https://www.chf.bc.ca/co-op/?id=0011500001L5jxcAAB,
,-123.39111,48.44332,Waterside Housing Cooperative,Non-Profit,Co-operative Housing Federation of BC (CHF BC) Member,,,,https://www.chf.bc.ca/co-op/?id=0011500001L5jtqAAB,
,-123.07304966,49.26896961,Westerdale Housing Co-operative,Non-Profit,Co-operative Housing Federation of BC (CHF BC) Member,,,,https://www.chf.bc.ca/co-op/?id=0011500001L5jvDAAR,
,-122.91948,49.20353,Westminster Heights Housing Co-operative,Non-Profit,Co-operative Housing Federation of BC (CHF BC) Member,,,,https://www.chf.bc.ca/co-op/?id=0011500001L5jwLAAR,
,-122.91575,49.19884,Westminster Landing Housing Co-operative,Non-Profit,Co-operative Housing Federation of BC (CHF BC) Member,,,,https://www.chf.bc.ca/co-op/?id=0011500001L5juRAAR,
,-122.78788,49.29509,Westwood Housing Co-operative,Non-Profit,Co-operative Housing Federation of BC (CHF BC) Member,,,,https://www.chf.bc.ca/co-op/?id=0011500001L5jwrAAB,
,-122.91111,49.26364,Whattlekainum Housing Co-operative,Non-Profit,Co-operative Housing Federation of BC (CHF BC) Member,,,,https://www.chf.bc.ca/co-op/?id=0011500001L5juZAAR,
,-123.35781,48.44563,Wilderness Park Housing Co-operative,Non-Profit,Co-operative Housing Federation of BC (CHF BC) Member,,,,https://www.chf.bc.ca/co-op/?id=0011500001L5jtGAAR,
,-123.17869216,49.26396627,WISHS Housing Co-operative,Non-Profit,Co-operative Housing Federation of BC (CHF BC) Member,,,,https://www.chf.bc.ca/co-op/?id=0011500001L5jvgAAB,
,-123.14375724,49.20824039,Wit's End Housing Co-operative,Non-Profit,Co-operative Housing Federation of BC (CHF BC) Member,,,,https://www.chf.bc.ca/co-op/?id=0011500001L5juFAAR,
,-117.65421,49.3019,Woodland Park Housing Co-operative,Non-Profit,Co-operative Housing Federation of BC (CHF BC) Member,,,,https://www.chf.bc.ca/co-op/?id=0011500001KkeRSAAZ,
,-123.16660959,49.26017777,Yew Street Housing Co-operative,Non-Profit,Co-operative Housing Federation of BC (CHF BC) Member,,,,https://www.chf.bc.ca/co-op/?id=0011500001KkeRaAAJ,